[{"OBJECT_NAME":"ALICE","OBJECT_ID":"2013-072F","EPOCH":"2026-03-09T16:03:25.924320","MEAN_MOTION":15.07155655,"ECCENTRICITY":0.01592016,"INCLINATION":120.4625,"RA_OF_ASC_NODE":282.3278,"ARG_OF_PERICENTER":246.5562,"MEAN_ANOMALY":111.8695,"EPHEMERIS_TYPE":0,"CLASSIFICATION_TYPE":"U","NORAD_CAT_ID":39467,"ELEMENT_SET_NO":999,"REV_AT_EPOCH":10026,"BSTAR":0.00062398338,"MEAN_MOTION_DOT":0.00012311,"MEAN_MOTION_DDOT":0},{"OBJECT_NAME":"JILIN-1 06","OBJECT_ID":"2017-074C","EPOCH":"2026-03-09T22:46:57.173376","MEAN_MOTION":15.32444387,"ECCENTRICITY":0.00061285,"INCLINATION":97.4715,"RA_OF_ASC_NODE":171.0354,"ARG_OF_PERICENTER":223.0031,"MEAN_ANOMALY":137.0732,"EPHEMERIS_TYPE":0,"CLASSIFICATION_TYPE":"U","NORAD_CAT_ID":43024,"ELEMENT_SET_NO":999,"REV_AT_EPOCH":45863,"BSTAR":0.00028431628,"MEAN_MOTION_DOT":8.833e-5,"MEAN_MOTION_DDOT":0}]
